name,license_type,address,city,region,state,zip_code,phone_number,latitude,longitude,email
NRC Holistic Health Services Clinic,hybrid,5272 Jerusalem Court Suite D,Modesto,Modesto,CA,95356,2093225129,37.716751,-120.999821,naturalremediesconsulting@gmail.com
THC - The Healing Center,hybrid,1400 Needles Hwy. Unit 100,Needles,Needles / Blythe,CA,92363,7604472663,34.848528,-114.610832,ilovethcneedles@yahoo.com
Hazel,hybrid,17523 Ventura Blvd.,Encino,Encino,CA,91316,8189291311,34.161825,-118.515021,www.hazelcollective@yahoo.com
THCSD,hybrid,"3703 Camino Del Rio South, Suite 215A",San Diego,Mission Valley,CA,92108,8583242420,32.777607,-117.115089,thcsd420@gmail.com
Green America,hybrid,1173 Harley Knox Blvd,Perris,Perris,CA,92571,9514207934,33.858757,-117.251924,Greenlifecultures@gmail.com
Mission Hills Patients Collective,hybrid,18446 Hart St. Unit M2,Reseda,Northridge / Chatsworth / Reseda,CA,91335,8187467313,34.1972522,-118.5348403,MHPCOLLECTIVE1@GMAIL.COM
Sun Valley Caregivers,hybrid,11000 Randall St. #E,Sun Valley,Sun Valley / Sunland / Tujunga,CA,91352,8185042661,34.23762,-118.37047,sunvalleycaregivers@gmail.com
Sol De Mendocino / Love In It,hybrid,45110 Main Street,MENDOCINO,Mendocino,CA,95460,7079373123,39.304748,-123.801806,soldemendocino@gmail.com
Venice Medical Center,hybrid,9636 Venice Blvd,Culver City,Culver City,CA,90232,4242931121,34.024321,-118.396509,venicemedicalcenterinfo@gmail.com
Empire Twin Palms,recreational,9806 Mission Blvd,Riverside,Jurupa Valley,CA,92509,9514167006,34.011298,-117.498998,EmpireTwinPalms@gmail.com
The Peoples Remedy Patterson,hybrid,16537 CA State Hwy 33,Patterson,Patterson,CA,95363,2096406878,37.459241,-121.120247,tpr.patterson@gmail.com
Deserts Finest,recreational,12106 Palm Dr,Desert Hot Springs,Palm Springs,CA,92240,8334385874,33.960645,-116.501145,info@desertsfinest.org
NACCC,hybrid,1719 Pacific Coast Highway,Lomita,Torrance,CA,90717,3102570011,33.789672,-118.308298,naccc310@gmail.com
Monterey Bay Alternative Medicine,hybrid,800 Portola Drive,Del Rey Oaks,Monterey,CA,93940,8313932500,36.598858,-121.850289,info@montereybayaltmed.com
The Plug - Hollywood,hybrid,980 North La Cienega #102,Los Angeles,West Hollywood,CA,90069,4242799497,34.08897,-118.37622,exhalemedcenter@gmail.com
Clique Cannabis,hybrid,6142 Walker Ave,Maywood,South Gate / Huntington Park / Downey,CA,90270,3238864420,33.980571,-118.172585,info@ogsinsemilla.delivery
High Season - DTLA,hybrid,2222 East Olympic Blvd.,Los Angeles,Downtown LA,CA,90021,9093548004,34.02589,-118.23261,dtla@shophighseason.com
From the Earth - Port Hueneme,hybrid,2675 N Ventura Rd #107,Port Hueneme,Oxnard / Camarillo,CA,93041,8054141394,34.17832,-119.196375,fromtheearth805@gmail.com
Harbor Collective,hybrid,2405 E Harbor Drive,San Diego,Gaslamp District,CA,92113,6198412045,32.692331,-117.139178,harborcollective@hotmail.com
SCSA South Coast Safe Access ,hybrid,1900 E. Warner Ave. Unit A,Santa Ana,Santa Ana,CA,92705,9494747272,33.713018,-117.841101,info@southcoastsafeaccess.com
99 High Tide,hybrid,22775 Pacific Coast Highway,Malibu,Malibu / Pacific Palisades,CA,90265,3104569930,34.039469,-118.671821,info@99hightide.com
Mankind Dispensary,hybrid,7128 Miramar Rd. Suite 10 (UPSTAIRS),San Diego,La Jolla,CA,92121,8582470953,32.880289,-117.160372,info@mankindcoop.com
The WEED ,recreational,11557 Ventura Blvd.,Studio City,Sherman Oaks / Studio City,CA,91604,8189802266,34.14008,-118.38361,info@theweedsc.com
Happy Leaf Collective,hybrid,2131 Westwood Blvd,Los Angeles,West Los Angeles,CA,90025,3104752500,34.04433,-118.43238,HappyLeafLA@gmail.com
Herban Legend,hybrid,17875 N. Highway 1,Fort Bragg,Fort Bragg,CA,95437,7079610113,39.403687,-123.80847,herbanlegend@live.com
LAXCC,hybrid,8332 Lincoln Blvd.,Los Angeles,LAX / Playa Del Rey / El Segundo,CA,90045,3104399189,33.961924,-118.420744,LAXCC20@gmail.com
Revolution Emporium ,hybrid,3081 N State St,Ukiah,Ukiah,CA,95482,7074840248,39.19023,-123.207162,revolutionemporium1@gmail.com
Purple Lotus,hybrid,752 Commercial St #20,San Jose,San Jose,CA,95112,4084560420,37.364941,-121.890152,plpcsanjose@gmail.com
CannaCruz,hybrid,115 Limekiln Street,Santa Cruz,Santa Cruz,CA,95060,8314203227,36.986428,-122.032464,cannacruz420@gmail.com
MMD - Hollywood,hybrid,1515 N Cahuenga Blvd,Los Angeles,Hollywood,CA,90028,8774205874,34.09851,-118.32972,lachhc@yahoo.com
MMD - Long Beach,hybrid,1901 Atlantic Ave.,Long Beach,North Long Beach / Signal Hill,CA,90806,5625288810,33.791795,-118.185235,nhslongbeach@gmail.com
The Joint - Anaheim,hybrid,1111 East Kimberly Ave,Anaheim,Anaheim,CA,92801,6575492274,33.862899,-117.908152,TJKioskOC@gmail.com
Purple Star MD,hybrid,2520 Mission Street,San Francisco,San Francisco,CA,94110,4155501515,37.756616,-122.419272,purplestarmd@gmail.com
GREENWOLF LA ,hybrid,2950 Los Feliz Blvd. Unit #100,Los Angeles,Glendale,CA,90039,3236689390,34.125669,-118.263905,Info@Greenwolf.La
So-Cal Co-op,hybrid,6322 Fallbrook Ave.,Woodland Hills,Woodland Hills / Tarzana / Canoga Park,CA,91367,8189144736,34.185259,-118.622936,alwaysmiles420@yahoo.com
Genesis Marketplace,hybrid,1802 Shelton Dr. Suite 103,Hollister,Morgan Hill / Gilroy / Hollister,CA,95023,8312165459,36.886202,-121.393545,info@genesis-marketplace.com
The Reefinery ,hybrid,14901 Oxnard Street,Van Nuys,Van Nuys,CA,91411,8187786707,34.17954,-118.45778,thereefinery@icloud.com
MMD North Hollywood,recreational,4720 Vineland Avenue,North Hollywood,North Hollywood,CA,91602,8189806337,34.1561445,-118.3702321,northhollywood@mmdshops.com
Connected Cannabis Co - Sacramento,hybrid,2831 Fruitridge Rd Suite E,Sacramento,Sacramento South,CA,95820,9164751857,38.52534,-121.47634,fdce@connectedca.com
Green Remedy,hybrid,2928 Unit C Hilltop Mall Rd,Richmond,Richmond / Hercules,CA,94806,5107587898,37.97853,-122.33108,info@greenremedycollective.com
Connected Cannabis Co - San Francisco,hybrid,5234 Mission St.,San Francisco,San Francisco South,CA,94112,14157695001,37.715408,-122.442133,Connectedsf@gmail.com
Cana Harbor - Harbor City,hybrid,1227 West 253rd St,Harbor City,Harbor City / Wilmington,CA,90710,14243054416,33.79501,-118.298215,elevateharborcity@gmail.com
Vallejo Holistic Health Center (VHHC),hybrid,539 Tennessee St,Vallejo,Vallejo,CA,94590,7076525018,38.109684,-122.253387,vhhc420@gmail.com
ShowGrow - Long Beach,hybrid,3411 East Anaheim Street,Long Beach,South Long Beach / Belmont Shore,CA,90804,5624948437,33.782962,-118.151841,005@showgrow.com
Dr. Greenthumb Humboldt ,hybrid,1672 Myrtle Ave,Eureka,Eureka,CA,95501,7072670146,40.7951,-124.1356,greenthumbeureka@gmail.com
DELI by Caliva,hybrid,9535 Artesia Blvd.,Bellflower,Compton / Bellflower,CA,90706,5622491600,33.87509,-118.13052,info@gocaliva.com
Leave it to Nature,hybrid,5340 Shasta Dam Blvd,Shasta Lake,Redding,CA,96019,5306917199,40.679823,-122.352054,leaveit2nature@yahoo.com
MMD Marina Del Rey,hybrid,13356 W Washington,Los Angeles,Venice / Marina Del Rey,CA,90066,4242284111,33.992211,-118.443762,marinadelrey@mmdshops.com
Dr. Greenthumb's - Sylmar,hybrid,12751 Foothill Blvd.,Sylmar,Sylmar / Pacoima / Panorama City,CA,91342,8186170373,34.291486,-118.412557,dgtsylmarinquiries@gmail.com
The Joint - Huntington Beach,recreational,126 Main St #103,CA,Huntington Beach,CA,92648,6575492274,33.657774,-118.000962,TJKioskOC@gmail.com
LEAF,recreational,423 W. Ocean Ave,Lompoc,Lompoc / Solvang,CA,93436,8054304204,34.63926,-120.462713,info@calileaf.com
Natural Healing Center - NHC,hybrid,998 Huston Street,Grover Beach,5 Cities,CA,93433,8052011498,35.111061,-120.619919,sales@nhcgroverbeach.com
SCCC,hybrid,135 Main Ave,Sacramento,Sacramento,CA,95838,9162543287,38.65629,-121.469908,truecompassioncooperative@gmail.com
The Kana Company,hybrid,1605 2nd Street,Davis,Davis,CA,95616,8884526226,38.545581,-121.731146,info@kanaco.com
Green Mammoth,hybrid,94 Laurel Mt. Rd. Suite 420,Mammoth Lakes,Mammoth Lakes / Inyo County,CA,93546,7609345400,37.6455716,-118.9681822,ShopLocal@MammothLakes.com
Valley Pure Farmersville,hybrid,515 West Noble Ave,Farmersville,Visalia,CA,93223,5596900411,36.325807,-119.211767,Socialmedia@valleypure.net
Flora Terra,recreational,1825 Empire Industrial Ct. Suite A,Santa Rosa,Santa Rosa,CA,95403,7079785978,38.470196,-122.748817,info@floraterraca.com
Medallion Atwater,hybrid,341 Business Parkway,Atwater,Merced,CA,95301,2096355983,37.34575,-120.6291,medallioncannabis@gmail.com
Coastal Dispensary,hybrid,1019 Chapala St,Santa Barbara,Santa Barbara,CA,93101,8053807730,34.420682,-119.703997,info@coastaldispensary.com
Flavors,hybrid,2213 Patterson Rd,Riverbank,Oakdale / Riverbank,CA,95367,2095540801,37.733115,-120.957454,weedmaps@thepremier.group
Tahoe Wellness Center,hybrid,3443 Lake Tahoe Blvd.,South Lake Tahoe,Lake Tahoe,CA,96150,5305448000,38.946374,-119.965477,info@tahoewellness.com
Mission Grown Medicinals,hybrid,2752-A Mission Rancheria Rd.,Lakeport,Clearlake,CA,95453,7075332946,39.021142,-122.886427,support@mgmedicinals.com
Haven,hybrid,3401 Norwalk Blvd,Long Beach,"Lakewood, CA",CA,90808,5623208776,33.817932,-118.072236,LosAlamitos@myhavenstores.com
Chai Cannabis Co. - Castroville,hybrid,10665 Merritt Street,Castroville,Salinas,CA,95012,8314537180,36.766469,-121.758486,chai.castroville@gmail.com
Universal Collective,hybrid,3625 CAHUENGA BLVD W,LOS ANGELES,Sherman Oaks / Studio City,CA,90068,3238501847,34.13443,-118.36015,universalcollective@yahoo.com
Buddha Company - DTLA,hybrid,837 South Los Angeles Street,Los Angeles,Downtown LA,CA,90014,2139437950,34.04136,-118.25342,thebuddhacompanyla@gmail.com
Token Farms,hybrid,483 W. Noble Ave Ste A,Farmersville,Visalia,CA,93223,5597388375,36.325506,-119.211071,Info@TokenFarmsInc.com
The Roots Dispensary,hybrid,805 W Laurel Ave,Lompoc,Lompoc / Solvang,CA,93436,8053228032,34.644147,-120.467125,hello@visittheroots.com
The Spot,hybrid,3242 S Halladay St,Santa Ana,Santa Ana,CA,92705,18008367768,33.703512,-117.860909,hello@thespotforyou.com
Save Greens,hybrid,11221 Venice Blvd,Los Angeles,Venice / Marina Del Rey,CA,90066,3234271723,34.012765,-118.417953,powerhousenla@gmail.com
Hollyweed Dispensary,hybrid,5158 Venice Blvd,Los Angeles,Mid Town,CA,90019,3235923113,34.044844,-118.352704,hollyweedhollywood@gmail.com
Blunts + Moore,hybrid,701 66th Avenue,Oakland,Oakland,CA,94621,5103473420,37.755807,-122.205202,info@bluntsandmoore.com
Sovereign,hybrid,17555 East Kirtland Way,Fort Bragg,Fort Bragg,CA,95437,7074099665,39.399861,-123.808675,sovereignwellness707@gmail.com
Exhalence,hybrid,10467 Roscoe Blvd,Sun Valley,Sun Valley / Sunland / Tujunga,CA,91352,8183949094,34.221922,-118.359563,exhalencela@gmail.com
PMG,hybrid,1191 E. Walnut St.,Pasadena,Pasadena,CA,91106,8184069086,34.149861,-118.125877,pasadenamedicalgroup@gmail.com
ATRIUM,hybrid,5441 Topanga Canyon Blvd,Woodland Hills,Woodland Hills / Tarzana / Canoga Park,CA,91367,8188107379,34.16977,-118.60612,info@atriumtopanga.com
The High Note - Culver City,hybrid,5277 West Jefferson Blvd,Los Angeles,Culver City,CA,90016,2135727199,34.025836,-118.360725,thehighnoteculver@gmail.com
The Peoples Remedy Oakdale,hybrid,570 Armstrong Way,Oakdale,Oakdale / Riverbank,CA,95361,2093218558,37.753938,-120.836511,TPR.oakdale@gmail.com
Urbn Leaf - Bay Park,hybrid,1028 Buenos Ave,San Diego,Clairemont Kearny,CA,92110,6192752235,32.767439,-117.202268,support@urbnleaf.com
Urbn Leaf - Bay Park,hybrid,1028 Buenos Ave,San Diego,Pacific Beach,CA,92110,6192752235,32.76745,-117.202241,support@urbnleaf.com
Lytt,hybrid,2110 Palmetto Ave,Pacifica,San Francisco South,CA,94044,6507359943,37.633065,-122.492509,info@its-lytt.com
STIIIZY - Mission,hybrid,3326 Mission Street,San Francisco,San Francisco,CA,94110,4157876006,37.74358,-122.421528,retail.mission@stiiizy.com
The OG Collective,hybrid,36380 Bankside Dr.,Cathedral City,Palm Springs,CA,92234,7608328939,33.783145,-116.469182,theogcollectivecc@gmail.com
Medallion Wellness,hybrid,4213 McHenry Ave. Suite E,Modesto,Modesto,CA,95356,2092487472,37.700495,-120.995126,medallioncannabis@gmail.com
HPC - Hueneme Patient Collective,hybrid,501 West Channel Islands Blvd Unit 302,Port Hueneme,Oxnard / Camarillo,CA,93041,8058743151,34.176538,-119.211813,rec@420hpc.com
Higher Level of Care - Seaside,hybrid,1440 Canyon Del Rey Blvd.,Seaside,Monterey,CA,93955,8315838300,36.60483,-121.85537,info@hldispensaries.com
Green Kong,hybrid,1281 W Oleander Ave,Perris,Perris,CA,92571,9519401844,33.858309,-117.254249,info@greenkong.com
Care Collective,hybrid,2725 E. South Street,Long Beach,North Long Beach / Signal Hill,CA,90805,5624707227,33.860693,-118.159058,info@carecollectivelb.com
The Hook,hybrid,817 Russell Ave,Santa Rosa,Santa Rosa,CA,95403,7078008733,38.469439,-122.730705,jointhehook@gmail.com
MSPC,hybrid,408 S Mt. Shasta Blvd,Mt. Shasta,Mt Shasta,CA,96067,5309266337,41.3098746,-122.3105666,mountshastapatientscollective@gmail.com
Airfield Supply Company,hybrid,1190 Coleman Avenue,San Jose,San Jose,CA,95110,4083200230,37.356854,-121.931837,info@airfieldsupplyco.com
H.A.I Holistic Alternative Inc.,hybrid,18306 Eddy St.,Northridge,Northridge / Chatsworth / Reseda,CA,91325,8187229333,34.227216,-118.531973,info@hai420.com
Sundialed Ukiah,hybrid,2601 North State Street,Ukiah,Ukiah,CA,95482,7075995372,39.183685,-123.208735,sundialed.ukiah@gmail.com
Vibe by California - Sacramento,recreational,8112 Alpine Ave,Sacramento,Sacramento South,CA,95826,9167396337,38.535439,-121.406616,alpinealternative@gmail.com
US Bloom Collective,hybrid,1201 Springs Road,Vallejo,Vallejo,CA,94591,7075610716,38.105806,-122.227919,USBloom707@gmail.com
The Honest Choice,hybrid,4701 Main St. Suite D,Denair,Turlock,CA,95316,2094272048,37.527238,-120.795375,thehonestchoice209@yahoo.com
Roots Dispensary,hybrid,11045 Sherman Way,Sun Valley,North Hollywood,CA,91352,8182100095,34.20136,-118.37187,rootsla818@gmail.com
Vibe by California - Stockton,hybrid,1550 W. Fremont St. STE 100,Stockton,Stockton,CA,95203,2096362307,37.953885,-121.312387,portcityalternative@gmail.com
The Circle,hybrid,1755 Ximeno Ave,Long Beach,South Long Beach / Belmont Shore,CA,90815,5624980993,33.789194,-118.139375,Info@thecirclelbc.com
Sierra Green,hybrid,1301 Rocking W Dr,Bishop,Mammoth Lakes / Inyo County,CA,93514,7603488449,37.38025,-118.42019,justsimplygreen@gmail.com
Cornerstone Wellness,hybrid,2551 Colorado Blvd,Los Angeles,Glendale,CA,90041,3232598933,34.142,-118.22211,info@cornerstonecollective.com
Torrey Holistics,hybrid,"10671 Roselle St, Suite #100",San Diego,La Jolla,CA,92121,18585581420,32.898216,-117.221815,support@torreyholistics.com
Dr. Greenthumb - Sacramento,hybrid,2201 Northgate Blvd,Sacramento,Sacramento,CA,95833,19165651692,38.607239,-121.476353,DrGreenthumb.sacramento@gmail.com
Apothekare,recreational,3455 Camino Del Rio S,Mission Valley,Mission Valley,CA,92108,6197016036,32.7774,-117.1189,apothekare@gmail.com
Coachella Lighthouse Dispensary,recreational,84160 Avenue 48,Coachella,Palm Desert / Rancho Mirage,CA,92236,4422563627,33.700178,-116.193968,info@lighthousedispensary.com
STIIIZY - Davis,hybrid,965 Olive Drive,Davis,Davis,CA,95616,5304462330,38.540151,-121.739983,davis@stiiizy.com
The Queen of Dragons,hybrid,5044 Shasta Dam Blvd,Shasta Lake City,Redding,CA,96019,5302769771,40.680006,-122.355843,QodCollective@gmail.com
Blue Fire,hybrid,1975 W Olive Ave,Merced,Merced,CA,95348,2095600399,37.320003,-120.502472,weedmaps@bluefiremerced.com
7 Stars Holistic Healing Center,hybrid,3223 Pierce St.,Richmond,Richmond / Hercules,CA,94804,5105277827,37.899507,-122.309287,info@7starsHHC.com
Cookies Melrose,recreational,8360 Melrose Ave,Los Angeles,West Hollywood,CA,90069,3234334743,34.083554,-118.372365,cookiesonmelrose@gmail.com
KindPeoples - Ocean Street,hybrid,533 Ocean St,Santa Cruz,Santa Cruz,CA,95060,8315154114,36.975821,-122.019767,info@kindpeoples.com
Humboldt's Premium - Eureka,recreational,1131 Broadway Street,Eureka,Eureka,CA,95501,7074960506,40.795898,-124.175254,humboldtspremium@humboldtafc.com
SEMILLA HRC,hybrid,7648 Clybourn Ave.,Sun Valley,Sun Valley / Sunland / Tujunga,CA,91352,7472232151,34.209269,-118.363005,herbalreliefcaregivers@gmail.com
Ohana Cannabis Co . (Formerly East Bay Therapeutics),hybrid,5745 Peladeau Street,Emeryville,Oakland,CA,94608,5109251266,37.838549,-122.290251,info@eastbaytherapeutics.com
Cana Sylmar,hybrid,13509 Hubbard Street,Sylmar,Sylmar / Pacoima / Panorama City,CA,91342,8183842522,34.30992,-118.42784,cannatopiagardens@yahoo.com
Empire Health & Wellness,hybrid,4725 Yosemite Boulevard,Empire,Modesto,CA,95357,2095499068,37.638437,-120.90827,EmpireHealth209@gmail.com
The Plant,hybrid,21759 Erwin St,Woodland Hills,Woodland Hills / Tarzana / Canoga Park,CA,91367,8188552013,34.183078,-118.60294,theplant2019@icloud.com
The Greenhouse Collective,hybrid,126 S H St,Lompoc,Lompoc / Solvang,CA,93436,8058190623,34.637858,-120.457494,greenhousecollectiveca@gmail.com
Chronic Pain Releaf Center - Long Beach,hybrid,1501 Santa Fe Ave.,Long Beach,Downtown Long Beach,CA,90813,5626764242,33.7856025,-118.2156644,info@chroniclb.com
STIIIZY - DTLA,hybrid,728 E Commercial St,Los Angeles,Downtown LA,CA,90012,3238121718,34.05262,-118.23237,retail.dtla@stiiizy.com
Exotics - Culver City,hybrid,3520 Overland Avenue,Los Angeles,Culver City,CA,90035,6269990400,34.02439,-118.41123,Exoticshc@gmail.com
Empire Health & Wellness - Oakdale,hybrid,633 Armstrong Way,Oakdale,Oakdale / Riverbank,CA,95361,2093222686,37.75312,-120.833922,empireoakdale@gmail.com
HiKei,hybrid,3940 Home Ave,San Diego,Normal Heights / North Park,CA,92105,6195178605,32.720434,-117.110309,handledmanagement1@gmail.com
High Season - Adelanto,hybrid,12011 Air Expressway,Adelanto,Victorville,CA,92301,7607808306,34.571637,-117.402659,loudnclearadelanto@gmail.com
Urbn Leaf - Seaside,hybrid,680 Broadway Avenue,Seaside,Monterey,CA,93955,8312333422,36.609018,-121.849418,info@urbnleaf.com
From The Earth,hybrid,3023 S. Orange Ave,Santa Ana,Santa Ana,CA,92707,6574447336,33.706456,-117.864691,fromtheearth714@fteusa.com
Leaf and Lion,hybrid,6978 Stanley Avenue,Long Beach,North Long Beach / Signal Hill,CA,90805,5625430102,33.881549,-118.162546,info@leafandlion.com
Santa Cruz Naturals - Aptos,hybrid,9077 Soquel Drive,Aptos,Santa Cruz,CA,95003,8316887266,36.975771,-121.888112,service@santacruznaturals.org
Elevation 2477',hybrid,569 Searls Ave.,Nevada City,Auburn / Grass Valley,CA,95959,5302647684,39.252325,-121.023366,elevation2477@gmail.com
Dr. Greenthumb's - San Francisco,hybrid,3139 Mission Street,San Francisco,San Francisco,CA,94110,4158142890,37.747073,-122.418801,sanfrancisco.drgreenthumbs@gmail.com
Long Beach Wellness Center,hybrid,5900 E. Spring St. Suite C,Long Beach,South Long Beach / Belmont Shore,CA,90815,5629824078,33.810126,-118.116981,longbeachwellnesscenter@gmail.com
Urbn Leaf - Grover Beach,hybrid,239 S 3rd St,Grover Beach,5 Cities,CA,93433,8055564198,35.120443,-120.627595,info@urbnleaf.com
Highway 29 Health Care,hybrid,3737 Sonoma Blvd.,Vallejo,Vallejo,CA,94589,7077122947,38.125692,-122.256001,LisaHighway29@gmail.com
Cannasseurs Club - NoHo,hybrid,11307 Vanowen St,North Hollywood,North Hollywood,CA,91605,8183582770,34.19402,-118.37881,thecannasseursclubnoho@gmail.com
The Green Heart - Mt. Shasta,hybrid,625 S. Mt. Shasta Blvd,Mt. Shasta,Mt Shasta,CA,96067,5309189440,41.308024,-122.311455,greenheartstaff@gmail.com
Balboa Ave Cooperative,hybrid,8863 Balboa Ave Suite E,San Diego,Clairemont Kearny,CA,92123,8585985004,32.819933,-117.137634,balboa@mesobrand.com
Royal Highness Cannabis Boutique,hybrid,"73345 Highway 111 , Suite 205",Palm Desert,Palm Desert / Rancho Mirage,CA,92260,7606105752,33.720759,-116.38508,info@royalhighnessmj.com
Rose Collective ,hybrid,411 Rose Ave,Venice,Venice / Marina Del Rey,CA,90291,3103923890,33.9979881,-118.4745905,info@rosecollective.com
SafePort Cannabis Dispensary,hybrid,353 W. Channel Islands Blvd.,Port Hueneme,Oxnard / Camarillo,CA,93041,8058433131,34.176358,-119.206948,info@safeportcannabis.com
CPR,hybrid,18526 Parthenia Street,Northridge,Northridge / Chatsworth / Reseda,CA,91324,8189964277,34.228094,-118.53711,cprcollective@gmail.com
Ecocann,hybrid,306 F Street,Eureka,Eureka,CA,95501,7072404220,40.803409,-124.166527,ray@ecocann.org
AHHS - WEHO ,hybrid,7828 Santa Monica Blvd,West Hollywood,West Hollywood,CA,90046,3236548792,34.090562,-118.360219,info@ahhsweho.com
Cannavine,hybrid,1230 Airport Park Blvd,Ukiah,Ukiah,CA,85482,7076219223,39.131323,-123.199746,info@trycannavine.com
1841 El Camino,hybrid,1841 El Camino Ave,Sacramento,Sacramento,CA,95815,9163591841,38.611451,-121.423449,horizon1841@yahoo.com
High Season - Perris,hybrid,1133 Harley Knox Blvd,Perris,Perris,CA,92571,9516233486,33.8593626,-117.2488731,perris@shophighseason.com
420 Oasis ,hybrid,4810 E Camino Parocela,Palm Springs,Palm Springs,CA,92264,7605079887,33.81429,-116.493927,info@the420oasis.com
Alternatives Dispensary - Santa Rosa,hybrid,1603 Hampton Way,Santa Rosa,Santa Rosa,CA,95407,7075251420,38.428094,-122.738417,alternativescollective@gmail.com
Green Earth Collective,hybrid,4801 York Blvd,Los Angeles,Glendale,CA,90042,3233490949,34.122347,-118.210695,info@gecollective.com
Dixon Wellness Collective,hybrid,1150 N 1st St. Suite B1,Dixon,Davis,CA,95620,7076401147,38.457364,-121.821811,DixonWellnessCollective@gmail.com
SSCC - South Sacramento Care Center,recreational,114A Otto Circle,Sacramento,Sacramento South,CA,95822,9163931820,38.508771,-121.476453,sscc916@gmail.com
Cannacruz Salinas ,hybrid,1156 Abbott Street,Salinas,Salinas,CA,93901,8312020172,36.65465,-121.630583,CannaCruz.salinas@gmail.com
Columbia Care California,hybrid,4645 De Soto St,San Diego,Pacific Beach,CA,92109,8583245130,32.807987,-117.217592,sandiego@col-care.com
EVOLV Cannabis,hybrid,25937 S Western Ave,Lomita,Torrance,CA,90717,3105042700,33.78707,-118.307963,customerservice@evolvcannabis.com
Cookies - Redding,hybrid,1700 E Cypress Ave,Redding,Redding,CA,96002,5306050120,40.571347,-122.33965,contact@cookiesredding.com
Zen Garden Wellness,hybrid,7632 Pacific Ave.,Stockton,Stockton,CA,95207,2094353900,38.018866,-121.323533,info@zen209.com
ASCENT,recreational,3399 Main Street Suite L1,MAMMOTH LAKES,Mammoth Lakes / Inyo County,CA,93546,7607095801,37.647423,-118.972651,info@ascentmammoth.com
The Farmacy SB,recreational,128 West Mission Street,Santa Barbara,Santa Barbara,CA,93101,8058801207,34.429032,-119.716893,info@thefarmacysb.com
Infinity,hybrid,811 W. Main Street,Merced,Merced,CA,95340,2093254906,37.303519,-120.488103,gdmconsultantsinc@gmail.com
The High Note - East LA,hybrid,5359 Valley Blvd,Los Angeles,East LA,CA,90032,3234412156,34.074728,-118.166742,thehighnoteeast@gmail.com
The Joint - Santa Ana,hybrid,1325 East St Andrew Place,Santa Ana,Santa Ana,CA,92705,7148453420,33.723269,-117.85249,thejointsantaana@gmail.com
LA Cannabis Co - La Brea,hybrid,1603 S. La Brea Avenue,Los Angeles,Mid Town,CA,90019,3232724073,34.045424,-118.345797,mhc60th@gmail.com
Jayden's Journey,hybrid,5054 Pentecost Dr. Suite E,Modesto,Modesto,CA,95356,2095817700,37.712306,-121.001684,info@thejaydensjourney.com
WHTC ,hybrid,3760 Cahuenga Blvd.,Studio City,Sherman Oaks / Studio City,CA,91604,8189808338,34.136431,-118.362129,contact@whtcla.com
The Green Earth Farmacie,hybrid,7756 Burnet Ave.,Van Nuys,Van Nuys,CA,91405,8189941045,34.212052,-118.462523,gefarm6811@gmail.com
Elevate Lompoc,hybrid,118 South H Street,Lompoc,Lompoc / Solvang,CA,93436,8058190077,34.638098,-120.457491,elevate@elevatelompoc.com
The Bud Farmacy,hybrid,101 E Spikes Rd,Needles,Needles / Blythe,CA,92363,7603260420,34.814146,-114.603166,thebudfarmacy420@outlook.com
Project Cannabis DTLA,hybrid,1555 Newton St.,Los Angeles,Downtown LA,CA,90021,2134934500,34.02538,-118.24168,retail@phcdtla.com
Bloom Room Collective,hybrid,471 Jessie St.,San Francisco,San Francisco,CA,94103,4155437666,37.7819534,-122.4083206,info@bloomroomsf.com
Project Cannabis - NoHo,recreational,10842Â Magnolia blvd,North Hollywood,North Hollywood,CA,91601,8183222177,34.164791,-118.367371,info@projcan.com
New Amsterdam Naturals,hybrid,9021 Exposition Blvd,Los Angeles,Culver City,CA,90034,3102026622,34.028878,-118.392697,info@nanwla.com
Cana Farms,hybrid,7011 Canoga Ave,Canoga Park,Woodland Hills / Tarzana / Canoga Park,CA,91303,8185915899,34.197807,-118.597964,canacanogapark@gmail.com
Big Sur Cannabotanicals,hybrid,26352 Carmel Rancho Lane,Carmel,Monterey,CA,93923,8312507756,36.540957,-121.906723,info@bigsurcannabotanicals.com
ERBA Markets,hybrid,12320 W Pico Blvd,Los Angeles,West Los Angeles,CA,90064,3102071900,34.028134,-118.452265,info@erbamarkets.com
Santa Cruz Naturals - Watsonville,hybrid,19 San Juan Rd,Watsonville,Santa Cruz,CA,95076,8317222018,36.904607,-121.749181,service@santacruznaturals.org
Wheelhouse Cannabis Dispensary,hybrid,521 W Channel Islands Blvd,Port Hueneme,Oxnard / Camarillo,CA,93041,8053820420,34.176396,-119.212354,info@wheelhouseph.com
CBD Werx,recreational,401 South El Camino Real Unit G,San Clemente,San Clemente,CA,92672,9494988273,33.42589,-117.610648,cbdwerx@gmail.com
Riverbank Cannabis Collective,hybrid,6609 3rd street,Riverbank,Oakdale / Riverbank,CA,95367,2095027557,37.735424,-120.936025,riverbankcollective@gmail.com
Caliva,hybrid,1695. S. 7th St,San Jose,San Jose,CA,95112,4082972615,37.31433,-121.86579,info@gocaliva.com
March and Ash,recreational,2835 Camino Del Rio South #100,San Diego,Mission Valley,CA,92108,6193147336,32.77109,-117.13339,info@marchandash.com
Pal's,hybrid,1367 Rocking W,Bishop,Mammoth Lakes / Inyo County,CA,93514,7609209859,37.376558,-118.420294,palsbishop@gmail.com
Perfect Union Eastside,hybrid,2035 Stockton Blvd,Sacramento,Sacramento South,CA,95817,9164523699,38.558597,-121.46118,eastside@perfect-union.com
Emerald Pharms,hybrid,13771 U.S. 101,Hopland,Ukiah,CA,95449,7076694819,38.97,-123.12,chelsea@emeraldpharms.com
Patient's Care Collective-Berkeley,hybrid,2590 Telegraph Ave,Berkeley,Berkeley,CA,94704,5105407878,37.863444,-122.259008,pcccrew@gmail.com
Valley Pure,hybrid,132 North Valencia Blvd,Woodlake,Visalia,CA,93286,5597692080,36.414532,-119.098541,tony@valleypure.net
Satori Wellness,hybrid,1551 Nursery Way Suite B,McKinleyville,Eureka,CA,95519,7078394599,40.938899,-124.102913,info@satoriwellness.org
The Leaf - El Paseo,hybrid,73740 El Paseo,Palm Desert,Palm Desert / Rancho Mirage,CA,92260,7605685323,33.720072,-116.378257,info@leafelpaseo.com
Sweet Flower - Melrose,hybrid,8163 Melrose Avenue,Los Angeles,West Hollywood,CA,90046,3235912662,34.083988,-118.367402,melrose@sweetflower.com
F Street Dispensary,hybrid,420 F Street,Davis,Davis,CA,95616,5307465122,38.546689,-121.740637,info@420fstreet.com
Have A Heart Oakland - Downtown,hybrid,709 Broadway,Oakland,Oakland,CA,94607,5108534200,37.799695,-122.274032,broadway@haveaheartcc.com
Mr. Nice Guy - OC,recreational,730 East Dyer Rd.,Santa Ana,Santa Ana,CA,92705,17144776892,33.70802,-117.85553,Mrniceguyoc730@gmail.com
Buddha Company - Arts District,hybrid,2038 Sacramento Street,Los Angeles,Downtown LA,CA,90021,2136283144,34.03042,-118.230813,thebuddhacompanyla@gmail.com
The Peoples Remedy,hybrid,1350 Lone Palm Ave.,Modesto,Modesto,CA,95351,2097352107,37.654574,-121.023822,lonepalm@peoplesremedy.com
City Compassionate Caregivers ,hybrid,2235 E 7th Street,Los Angeles,East LA,CA,90023,3232657060,34.034855,-118.22343,info@citycompassionatecaregivers.com
PureLife Alternative Wellness Center,hybrid,20751 Marilla St,Chatsworth,Northridge / Chatsworth / Reseda,CA,91311,3102469345,34.248252,-118.585961,purelifeops@gmail.com
Palm Royale Collective,hybrid,75048 Gerald Ford Dr STE 101,PALM DESERT,Palm Desert / Rancho Mirage,CA,92211,7608513286,33.782343,-116.354324,info@palmroyalecollective.com
Canna Cloud,hybrid,1153 Harley Knox,Perris,Perris,CA,92571,9519406420,33.858465,-117.251465,cannacloudperris@gmail.com
SkunkMasters,recreational,2675 N. Ventura Road Suite 104,Port Hueneme,Oxnard / Camarillo,CA,93041,8059539174,34.17821,-119.196292,skunkmasters805ph@gmail.com
Elevate ,hybrid,20010 Ventura Blvd,Woodland Hills,Woodland Hills / Tarzana / Canoga Park,CA,91364,8188359525,34.1683,-118.6059,Admin@elevate-dispensary.com
Green Angel ,hybrid,14000 Ventura Blvd,Sherman Oaks,Sherman Oaks / Studio City,CA,91423,8186460221,34.148845,-118.437371,Greenangelwla@gmail.com
Elevate Shasta,recreational,401 Berry St.,Mt. Shasta,Mt Shasta,CA,96067,5304089628,41.310741,-122.313827,elevateshasta@gmail.com
"Marina Caregivers, Inc.",hybrid,13453 Beach Avenue,Marina del Rey,Venice / Marina Del Rey,CA,90292,3105744000,33.990801,-118.445791,marinacaregivers@gmail.com
The 420 Lounge,hybrid,777 N Palm Canyon Dr,Palm Springs,Palm Springs,CA,92262,7608328422,33.833689,-116.547197,palmspringslounge@gmail.com
KindPeoples - Soquel Ave.,hybrid,3600 Soquel Ave,Santa Cruz,Santa Cruz,CA,95062,8314718562,36.985755,-121.982663,info@kindpeoples.com
Elemental Wellness,hybrid,985 Timothy Drive,San Jose,San Jose,CA,95133,4084333344,37.363632,-121.881406,info@elementalwellnesscenter.com
The Reef,hybrid,1900 Fremont Blvd,Seaside,Monterey,CA,93955,8319007333,36.616939,-121.841194,info@montereybayreef.com
Perfect Union Southside,hybrid,6492 Florin Perkins Rd.,Sacramento,Sacramento South,CA,95828,9163829766,38.509261,-121.394243,Southside@perfect-union.com
California Collective Care,hybrid,1639 Lewis Brown Drive,Vallejo,Vallejo,CA,94589,7076436313,38.1389706,-122.2542195,ccclewisbrown@gmail.com
Nug Wellness - San Leandro,hybrid,3089 Tea Garden St.,San Leandro,Hayward / Castro Valley,CA,94577,5102810745,37.70533,-122.15347,sanleandro@nug.com
Proper Wellness Center,hybrid,517 5th st,Eureka,Eureka,CA,95501,7076830009,40.80244,-124.16402,properwellnesscenter@gmail.com
Aroma - Calexico,hybrid,1632 Gateway Road Suite 5,Calexico,El Centro,CA,92231,7607916530,32.688964,-115.388951,aromacalex@icloud.com
The Prime Leaf,hybrid,836 East Hobsonway,Blythe,Needles / Blythe,CA,92225,7607102227,33.61022,-114.58764,Blythe@theprimeleaf.com
FireHaus,hybrid,2000 Cotner Ave,Los Angeles,West Los Angeles,CA,90025,3235159333,34.0421,-118.44158,info@firehausla.com
Kind Farma,hybrid,946 Olive Dr,Davis,Davis,CA,95616,5302315695,38.54013,-121.739219,info@thekindfarma.com
Dragonfly Wellness Center,hybrid,17975 North Hwy 1,Fort Bragg,Fort Bragg,CA,95437,7079620890,39.404703,-123.808391,admin@dragonflywellness.org
The Apothecarium - SOMA,recreational,527 Howard St,San Francisco,San Francisco,CA,94105,4157410741,37.787835,-122.396544,connect.howard@apothecarium.com
The Artist Tree,hybrid,8625 Santa Monica Blvd,West Hollywood,West Hollywood,CA,90069,3104614134,34.08898,-118.37802,info@theartisttree.com
H Street Patient Care,hybrid,221 H Street,Needles,Needles / Blythe,CA,92363,7603263893,34.839474,-114.608139,hstreetpatientcare420@gmail.com
Project Cannabis Soma,hybrid,761 Bryant St,San Francisco,San Francisco,CA,94107,6283336159,37.776547,-122.401349,projectcannabissoma@projcan.com
DTPG,recreational,930 South Alameda Street,Los Angeles,Downtown LA,CA,90021,2132751599,34.02656,-118.23893,info@dtpgla.com
Mecca Mid City,hybrid,5738 West Washington Blvd,Los Angeles,Culver City,CA,90016,3238799731,34.03438,-118.3694,info@meccamidcity.com
The Jackpot,hybrid,6514 Whittier Blvd.,East Los Angeles,East LA,CA,90032,7143211148,34.014908,-118.132041,jackpotla420@gmail.com
Plantacea,hybrid,1717 Fremont Blvd Suite B,Seaside,Monterey,CA,93955,8313244500,36.611948,-121.844602,Hello@plantacea.org
The Pottery,hybrid,5042 Venice Blvd,Los Angeles,Mid Town,CA,90019,3234529833,34.04513,-118.348584,info@thepottery.la
Tropicanna,hybrid,1628 S Grand Ave,Santa Ana,Santa Ana,CA,92705,7147018186,33.72627,-117.85057,Info@TheTropicannaLife.com
Emerald Perspective,hybrid,100 W Pleasant Valley Rd,Port Hueneme,Oxnard / Camarillo,CA,93041,8052465045,34.15472,-119.200272,info@emeraldperspective.com
DELI by Caliva ,hybrid,92 Pullman Way,San Jose,San Jose,CA,95111,4084402362,37.28996,-121.85013,dvolkland@caliva.com
West Coast Cannabis Club,recreational,74425 CA-111,Palm Desert,Palm Desert / Rancho Mirage,CA,92260,7602802420,33.72125,-116.365713,Hello@WestCoastCannabis.Club
Jayden's Journey,hybrid,4030 Farm Supply Dr.,Ceres,Modesto,CA,95307,2098465300,37.579883,-120.981134,saransouza3@gmail.com
Tioga Green,recreational,51005 HWY 395,Lee Vining,Mammoth Lakes / Inyo County,CA,93541,7607092587,37.951194,-119.11745,tiogagreen@gmail.com
Davis Cannabis Collective,hybrid,2121 2nd St Suite C101,Davis,Davis,CA,95618,5307472057,38.54756,-121.724578,info@daviscannabiscollective.com
East of Eden Cannabis Co.,recreational,514 Work Street,Salinas,Salinas,CA,93901,8312377420,36.670033,-121.642341,info@eastofedencannabisco.com
Ocean Hye,hybrid,1017 E Ocean Ave #A,Lompoc,Lompoc / Solvang,CA,93436,8057417920,34.639186,-120.445839,info@OceanHYE.com
Hemp Hop Station,hybrid,3201 Sonoma Blvd.,Vallejo,Vallejo,CA,94590,7076411444,38.116116,-122.254925,hemphopstation@gmail.com
Holistic Healing Collective,hybrid,15501 San Pablo Ave,Richmond,Richmond / Hercules,CA,94806,5102753365,37.99026,-122.335625,hhcweedmaps19@gmail.com
Cannabis Local,hybrid,12800 Wentworth St,Arleta,Sylmar / Pacoima / Panorama City,CA,91331,3109517994,34.236573,-118.411616,hello@cannabislocal.co
Harvest HOC,recreational,712 Lincoln Blvd,Venice,Venice / Marina Del Rey,CA,90291,4243460980,33.999778,-118.463986,askme@harvestinc.com
Green Cross of Torrance,recreational,1658 West Carson St. Suite B,Torrance,Torrance,CA,90501,3105339363,33.831098,-118.3086093,thegreencross1@gmail.com
Emerald Skyway,hybrid,1610 Moffett,Salinas,Salinas,CA,93905,8313165207,36.659469,-121.609394,info@emeraldskyway.com
Mary Janes - Hollywood,hybrid,4901 Melrose Ave,Los Angeles,Hollywood,CA,90029,3234666636,34.083579,-118.30708,mjcollective99@gmail.com
HHC - Healthy Herbal Care,hybrid,7123 Sepulveda Blvd.,Van Nuys,Van Nuys,CA,91405,8184538085,34.199824,-118.466454,hhccollective420@gmail.com
Empire Gardens - Perris,hybrid,4164 N Perris Blvd Suite C,Perris,Perris,CA,92571,9514900782,33.847341,-117.226781,iegardens17@gmail.com
Chill Supply Co.,recreational,1500 Esperanza St,LOS ANGELES,East LA,CA,90023,3234772314,34.01563,-118.20086,LAGGR323@gmail.com
BARE Dispensary,hybrid,690 Garnet Ave,Palm Springs,Palm Springs,CA,92262,7606737400,33.82,-116.55,baredispensary18@gmail.com
CHAI Cannabis Co,hybrid,3088 Winkle Ave. ste. C,Santa Cruz,Santa Cruz,CA,95065,8314755506,36.989152,-121.974352,cannabishealing@yahoo.com
LA Cannabis Co - Los Angeles,hybrid,3791 2nd Avenue,Los Angeles,Mid Town,CA,90018,3237333644,34.018748,-118.319333,ogtc.la@GMAIL.COM
"HCMA - NC Co-Op, Inc.",recreational,11826 Sheldon Street,Sun Valley,Sun Valley / Sunland / Tujunga,CA,91352,8184148125,34.241328,-118.39068,hcma818@gmail.com
Life Enhancement Services,hybrid,1966 Broadway,Vallejo,Vallejo,CA,94589,7076548842,38.138612,-122.252082,dhcvallejo707@gmail.com
NUG,hybrid,1918 16th St.,Sacramento,Sacramento,CA,95811,9167062089,38.567658,-121.49,sacramento@nug.com
Los Angeles Kush - LA Kush,hybrid,182 S Alvarado St.,Los Angeles,Korea Town / Echo Park,CA,90057,2133524108,34.064294,-118.271457,orders@lakushep.com
2ONE2 California Street Dispensary,hybrid,212 California St,San Francisco,San Francisco,CA,94111,4154964867,37.793601,-122.399169,info@2one2california.com
Phenos,hybrid,1234 Mchenry Ave Suite C,Modesto,Modesto,CA,95350,2092389100,37.661125,-120.993702,weedmaps@phenos.co
Hi-Fidelity,hybrid,2465 Telegraph Ave,Berkeley,Berkeley,CA,94704,5108382400,37.865706,-122.258457,info@hifigreen.com
Leaf and Lion - Port Hueneme,hybrid,437 W Channel Island Blvd,Port Hueneme,Oxnard / Camarillo,CA,93041,8053422081,34.17637,-119.20885,port@leafandlion.com
Stone Age Farmacy LA - Recreational,hybrid,621 W. Rosecrans Ave Suite #101,Gardena,South Bay,CA,90248,3103665906,33.90205,-118.28562,weedmaps@stoneagefarmacy.com
The Higher Path,hybrid,14080 Ventura Blvd,Sherman Oaks,Sherman Oaks / Studio City,CA,91423,8183851224,34.149243,-118.439841,info@thehigherpath.com
SUGARBUDZ,recreational,9830 north San Fernando rd,Pacoima,Sylmar / Pacoima / Panorama City,CA,91331,7479985443,34.249553,-118.403018,SugarbudzPacoima@gmail.com
Leef Industries,recreational,3700 E. Vista Chino Unit D,Palm Springs,Palm Springs,CA,92262,7608329222,33.845449,-116.505186,support@leefindustries.com
Urban Pharm,hybrid,122 10th Street,San Francisco,San Francisco,CA,94103,4158729488,37.774764,-122.415753,info@urbanpharmsf.com
Smartweed,hybrid,1040 North Western Ave.,Los Angeles,Hollywood,CA,90029,3236728383,34.08956,-118.308888,vhc420@yahoo.com
BARC ,hybrid,432 S. San Vicente Blvd. Suite #100,Los Angeles,West Hollywood,CA,90048,8552272420,34.070764,-118.375675,barccollective@gmail.com
Northstar Holistic Collective,hybrid,1236 C Street,Sacramento,Sacramento,CA,95814,9164764344,38.5867576,-121.4861087,buyer@northstar916.com
Patient Care First,recreational,1442 Angie Ave,Modesto,Modesto,CA,95351,2095540802,37.610191,-120.939796,weedmaps@pcf209.com
Better Health Group,hybrid,3611 Sonoma blvd,Vallejo,Vallejo,CA,94590,7076433767,38.123701,-122.256165,betterhealthgroup707@gmail.com
West Valley Patients Center,hybrid,23043 Ventura Blvd.,Woodland Hills,Woodland Hills / Tarzana / Canoga Park,CA,91364,8182244146,34.1644899,-118.6282757,budtenders@westvalleypatientsgroup.com
Infinity Medical Alliance - Torrance,hybrid,1609 Lockness Place,Torrance,Torrance,CA,90501,3108912223,33.81827,-118.30584,infinityalliance1609@gmail.com
New Age Care Center,recreational,350 W Martin Luther King Jr Blvd,Los Angeles,Central LA,CA,90037,3232312795,34.01092,-118.27958,lanewagecc@gmail.com
LA Cannabis Co - Inglewood,hybrid,5993 S St Andrews Pl.,Los Angeles,Inglewood / Hawthorne / Crenshaw / Leimert Park,CA,90047,3237788540,33.985454,-118.311999,holisticpainrelief.la@gmail.com
HTP Group - Vallejo,hybrid,1408 Enterprise Street,Vallejo,Vallejo,CA,94589,7072602626,38.134904,-122.259076,htpintake@gmail.com
Mission Organic,hybrid,5258 Mission St.,San Francisco,San Francisco South,CA,94112,4155856337,37.715179,-122.442418,Info@MissionOrganicCenter.com
Strain Balboa Caregivers ,hybrid,21627 Devonshire st.,Chatsworth,Northridge / Chatsworth / Reseda,CA,91311,8182806069,34.2574,-118.60127,strainbalboacaregivers@gmail.com
"The Kind Center, Inc.",hybrid,1944 N Cahuenga Blvd,Hollywood,Hollywood,CA,90068,3233189053,34.10657,-118.330486,kindcenter420@gmail.com
The Green Easy,hybrid,8311 Beverly Blvd,Los Angeles,West Hollywood,CA,90048,3234243035,34.076304,-118.370479,thegreeneasy3@gmail.com
Green Goddess Collective,recreational,1716 MAIN ST.,Venice,Venice / Marina Del Rey,CA,90291,18444208442,33.987753,-118.47047,info@greengoddesscollective.com
Modesto Cannabis Collective,hybrid,439 Maze Blvd,Modesto,Modesto,CA,95351,2094884172,37.63856,-121.01236,ModestoCannabisCollective@gmail.com
Flower to the People,recreational,70 2nd Street,San Francisco,San Francisco,CA,94105,6284443441,37.788251,-122.400416,wendy@flowerpowerdispensary.com
King's Crew,hybrid,5630 E. Pacific Coast Highway,Long Beach,South Long Beach / Belmont Shore,CA,90814,5625135441,33.77477,-118.122395,contact@kingscrew.com
Elevated San Francisco,recreational,2442 Bayshore Blvd.,San Francisco,San Francisco South,CA,94134,4158255123,37.710796,-122.404361,contact@elevatedsf.com
Golden State Greens Point Loma,hybrid,3452 Hancock Street,San Diego,Ocean Beach,CA,92110,6192688035,32.756379,-117.208176,delivery@goldenstategreens.com
California Cannabis Melrose,hybrid,654 N Manhattan Pl,Los Angeles,Korea Town / Echo Park,CA,90004,3239792568,34.0832,-118.309961,californiacannabismelrose@gmail.com
Foothill Wellness Center,hybrid,7132 Foothill Blvd.,Tujunga,Sun Valley / Sunland / Tujunga,CA,91042,8183523388,34.24792,-118.28712,foothillwellnessctr@gmail.com
DC Collective,hybrid,8053 Deering Ave.,Canoga Park,Woodland Hills / Tarzana / Canoga Park,CA,91304,8188870980,34.216779,-118.595255,info@dccollective.com
Cathedral City Care Collective North,recreational,28201 Date Palm Dr Suite B,Cathedral City,Palm Springs,CA,92234,7608326417,33.843387,-116.458848,Catcitycare@gmail.com
Greenlight Discount Pharmacy ,hybrid,15507 Cobalt Street #4,Sylmar,Sylmar / Pacoima / Panorama City,CA,91342,8182561964,34.307005,-118.470101,gtodblog@gmail.com
The Guild SJ,recreational,2943 Daylight Way,San Jose,San Jose,CA,95111,4082240420,37.288737,-121.849523,info@guildsj.com
Blum - Oakland,hybrid,578 W. Grand Ave,Oakland,Oakland,CA,94612,5103383632,37.81234,-122.27075,ca-info@letsblum.com
Omnia Industry,hybrid,6420 Wilmington Ave.,Los Angeles,South LA,CA,90001,3237495511,33.981046,-118.238455,omniaindustry.ca@gmail.com
Doctor's Choice,hybrid,2039 Yosemite BLVD.,Modesto,Modesto,CA,95354,2094884976,37.638531,-120.960269,doctorschoicedispensary@gmail.com
The Apothecarium - Castro,hybrid,2029 Market Street,San Francisco,San Francisco,CA,94114,4155002620,37.767464,-122.428899,connect@Apothecarium.com
Hollywood High Grade,hybrid,7051 B Santa Monica Blvd,Hollywood,Hollywood,CA,90038,3235369133,34.09078,-118.3433,hollywoodhighgrade@gmail.com
515 Broadway - Sacramento,hybrid,515 Broadway,Sacramento,Sacramento,CA,95818,8447229333,38.565585,-121.506545,info@515broadway.com
CA Collective,hybrid,210 Phelan Ave.,San Jose,San Jose,CA,95112,4088094301,37.312477,-121.866928,casystematize@gmail.com
Plantacea,hybrid,1 Benicia Road,Vallejo,Vallejo,CA,94590,7079807868,38.098621,-122.243385,hello@plantacea.org
Delta 9 THC,hybrid,824 E. Anaheim St. Unit B,Wilmington,Harbor City / Wilmington,CA,90744,3105183582,33.780288,-118.252246,deltaninethc9@yahoo.com
Curbstone Exchange,hybrid,6535 Hwy 9,Felton,Santa Cruz,CA,95018,8317047151,37.056015,-122.075328,curbstoneexchange@gmail.com
Natural Remedies ,recreational,927 1/2 Western ave.,Los Angeles,Hollywood,CA,90029,3238719500,34.08756,-118.30925,nrcaregivers@yahoo.com
A Therapeutic Alternative,hybrid,3015 H Street,Sacramento,Sacramento,CA,95816,9168224717,38.57547,-121.464876,info@atherapeuticalternative.com
Rite Greens LA,recreational,3951 E Slauson Ave,Maywood,South Gate / Huntington Park / Downey,CA,90270,3237490013,33.988374,-118.194642,info@ritegreensla.com
Coast to Coast Cannabis,recreational,7127 Canoga Avenue,Canoga Park,Woodland Hills / Tarzana / Canoga Park,CA,91303,8187120535,34.199973,-118.5981,contact@3ccoast.com
BASA Collective,recreational,1326 Grove Street,San Francisco,San Francisco,CA,94117,4154091002,37.776067,-122.438523,customersupport@trybasa.com
Cloud 8th DTLA,hybrid,2111 Long Beach Ave,Los Angeles,Central LA,CA,90058,2132751223,34.017649,-118.243825,clouddtla@gmail.com
Smart Collective,hybrid,10745 RIVERSIDE DR SUITE A,NORTH HOLLYWOOD,North Hollywood,CA,91602,8188568208,34.152411,-118.365146,sccnoho@gmail.com
TreeHouse,hybrid,3651 Soquel Dr,Soquel,Santa Cruz,CA,95073,8314718289,36.987638,-121.96775,team@ourtreehouse.io
The Station,hybrid,1957 Pacific Ave,Long Beach,North Long Beach / Signal Hill,CA,90806,5625288724,33.792855,-118.194145,longbeachstation@gmail.com
Long Beach Green Room,hybrid,1735 E. 7th st.,Long Beach,Downtown Long Beach,CA,90813,5622180021,33.77562,-118.170099,longbeachgreenroom@gmail.com
420 Pit Stop,hybrid,2315 Fair Oaks Ave.,Altadena,Pasadena,CA,91001,6263433018,34.185569,-118.151037,420PitStop@ProtonMail.com
Modern Buds,hybrid,3730 E Broadway,Long Beach,South Long Beach / Belmont Shore,CA,90803,5625889019,33.76429,-118.148223,high@modernbuds.com
Mission Cannabis Club (FKA Shambhala),hybrid,2441 Mission St,San Francisco,San Francisco,CA,94110,4159709333,37.757939,-122.418631,info@missioncannabisclub.com
Perfect Union Northside,hybrid,1508 El Camino Avenue,Sacramento,Sacramento,CA,95815,9169255696,38.61013,-121.432924,northside@perfect-union.com
Firehouse 365,hybrid,6118 Atlantic Blvd,Maywood,South Gate / Huntington Park / Downey,CA,90270,3234840013,33.98294,-118.18611,thefirehouse365@gmail.com
LB Collective,hybrid,1731 E ARTESIA BLVD,Long Beach,North Long Beach / Signal Hill,CA,90805,5624220011,33.874799,-118.171179,lbcollective@yahoo.com
Weden,hybrid,1625 E St. Gertrude Place,Santa Ana,Santa Ana,CA,92705,6572363366,33.720144,-117.846651,weecare@weden.com
The Medicine Woman - Bellflower,hybrid,9058 Rose St,Bellflower,Compton / Bellflower,CA,90706,8558696337,33.869246,-118.140599,info@themedicinewoman.com
Herbal Remedies Caregivers,hybrid,12423 Gladstone Avenue,Sylmar,Sylmar / Pacoima / Panorama City,CA,91342,8189287207,34.295557,-118.412265,herbal.sylmar@gmail.com
The Lift,hybrid,2800 East 4th ST,Long Beach,South Long Beach / Belmont Shore,CA,90814,5624344420,33.771492,-118.158722,thelift420@gmail.com
The Farmacy Westwood,hybrid,1035 Gayley Ave,Los Angeles,West Los Angeles,CA,90024,3104437722,34.06122,-118.44765,store@westwoodfarmacy.com
Delta Health and Wellness,hybrid,2416 17th St,Sacramento,Sacramento,CA,95818,9162319934,38.561883,-121.4907847,deltahealth2416@gmail.com
Urban Smoke,hybrid,20844 Vanowen st.,Winnetka,Woodland Hills / Tarzana / Canoga Park,CA,91303,,34.19356,-118.58762,Urbansmokela@gmail.com
The Apothecarium - Marina,recreational,2414 Lombard St.,San Francisco,San Francisco,CA,94123,4154086986,37.799384,-122.441323,connect.lombard@apothecarium.com
The Shop WH,hybrid,5338 Alhama Dr.,Woodland Hills,Woodland Hills / Tarzana / Canoga Park,CA,91364,8188845638,34.166414,-118.592936,management@theshopwh.com
West Coast Holistic Center,hybrid,15460 Devonshire st.,Mission Hills,Sylmar / Pacoima / Panorama City,CA,91345,8188939091,34.257104,-118.469481,westcoastholisticcenter@gmail.com
Apothecary,recreational,15374 Dickens St.,Sherman Oaks,Sherman Oaks / Studio City,CA,91403,8189050420,34.153146,-118.468842,apothecary420so@gmail.com
Connected Cannabis Co - Bellflower,hybrid,9032 Artesia Blvd Ste 201,Bellflower,Compton / Bellflower,CA,90706,5628040632,33.874399,-118.141641,bellflower@connected-socal.com
Shatter,recreational,"350 W. 5th, Unit 101",San Bernardino,San Bernardino,CA,92401,9093300900,34.108543,-117.290481,info@theshatterlounge.com
Two Rivers,hybrid,315 North 10th Street,Sacramento,Sacramento,CA,95811,9163890083,38.592327,-121.487102,frontdesk@tworiverssac.com
Circle Of Hope,hybrid,16901 Roscoe Blvd,Northridge,Northridge / Chatsworth / Reseda,CA,91343,8188106074,34.221652,-118.501258,circleofhopela@gmail.com
The Healing Touch,hybrid,18013 Ventura Blvd unit A,Encino,Encino,CA,91316,8188811462,34.16469,-118.52474,info@thtcannabis.com
Euphoric,hybrid,10655 West Pico Blvd,Los Angeles,West Los Angeles,CA,90064,3104468100,34.0427874,-118.4237806,EUPHORICCAREGIVERS@YAHOO.COM
Herbal Pain Relief Center,hybrid,10736 Sepulveda Blvd.,Mission Hills,Sylmar / Pacoima / Panorama City,CA,91345,8186396028,34.26532,-118.46721,hprc0420@gmail.com
Green Cross Pharma,recreational,68730 Summit Drive,Cathedral City,Palm Springs,CA,92234,7608327194,33.785621,-116.462495,greencrossrx@gmail.com
The Green Cross,hybrid,4218 Mission Street,San Francisco,San Francisco South,CA,94112,4156484420,37.729774,-122.430645,Staff@TheGreenCross.org
Connected Cannabis Co - Cherry,hybrid,3170 Cherry Ave,Long Beach,North Long Beach / Signal Hill,CA,90806,5624262420,33.81711,-118.16753,cherry@connected-socal.com
SFFOGG,hybrid,211 12th street,San Francisco,San Francisco,CA,94103,4158964271,37.771637,-122.416487,sffogg@gmail.com
BEACH Center - South Bay,recreational,1115 West 190th St.,Gardena,South Bay,CA,90248,3108214420,33.858537,-118.295374,beach@libertycannabis.com
IVTHC,hybrid,11555 Palm Dr,Desert Hot Springs,Palm Springs,CA,92240,7606997935,33.964783,-116.501846,cvwellness420@gmail.com
Mother Earths Farmacy,recreational,36633 Cathedral Canyons Dr,Cathedral City,Palm Springs,CA,92234,7608328348,33.782685,-116.467137,contact@mefarmacy.com
Amp Nutrition Center CBD,hybrid,2150 south waterman ave.,san bernardino,San Bernardino,CA,92408,9096773381,34.06193,-117.2788,maryjanescuts@gmail.com
Connected Cannabis Co - Santa Ana,hybrid,"2400 Pullman St, Suite B",Santa Ana,Santa Ana,CA,92705,6572294464,33.714717,-117.844943,santaana@connected-socal.com
Green Pearl Organics,hybrid,64949 Mission Lakes Blvd #108,Desert Hot Springs,Palm Springs,CA,92240,7608943146,33.9752714,-116.5309007,gpopurchasing@gmail.com
Evergreen - Santa Ana ,recreational,1320 E. Edinger Ave,Santa Ana,Santa Ana,CA,92705,7144861806,33.726387,-117.85266,evergreenholistic@gmail.com
Canna Culture Collective,hybrid,3591 Charter Park Dr. #20,San Jose,San Jose,CA,95136,4082647877,37.2790396,-121.8503054,info@cannaculturecollective.com
Green City Collective,hybrid,8405 Pershing dr. suite 100,Playa Del Rey,LAX / Playa Del Rey / El Segundo,CA,90293,4248354203,33.95705,-118.4431,greencitycol@yahoo.com
Compassion Union,hybrid,11669 Vanowen St,North Hollywood,North Hollywood,CA,91605,8183086065,34.194086,-118.386861,compassionun@gmail.com
Natural Herbal Pain Relief N.H.P.R,hybrid,2121 S. 10th Street,San Jose,San Jose,CA,95112,14082839333,37.30914,-121.85555,naturalherbalpainreliefsj@gmail.com
West Coast Cannabis Club,recreational,68828 Ramon Rd Suite A2,Cathedral City,Palm Springs,CA,92234,7606560865,33.816203,-116.46135,Hello@WestCoastCannabis.Club
United Health Care Center,hybrid,5925 S Alameda #B,Los Angeles,South Gate / Huntington Park / Downey,CA,90001,3234849023,33.987249,-118.237908,uhcchp5925@gmail.com
Zen Healing West Hollywood,hybrid,8464 Santa Monica Blvd,West Hollywood,West Hollywood,CA,90069,3236566666,34.09039,-118.3741,zenhealingwh@gmail.com
Shivas - DTLA,recreational,1339 South Hill Street,Los Angeles,Downtown LA,CA,90015,12133226828,34.03679,-118.26311,info@shivasdtla.com
OC3 Orange County Cannabis Club - Santa Ana,recreational,3122 Halladay Street (Entrance on West side of building),Santa Ana,Santa Ana,CA,92705,7147541348,33.705166,-117.859997,oc3collective@gmail.com
Atomic Budz Dispensary,recreational,68415 Perez Rd,Cathedral City,Palm Springs,CA,92234,7603224481,33.784476,-116.468386,info@atomicbudz.com
MCPG Happy Herbs,hybrid,1988 Broadway St,Vallejo,Vallejo,CA,94589,7075671790,38.140298,-122.251728,mcpgmembership@gmail.com
Westside CLLCTV,hybrid,872 W. WASHINGTON ST,Perris,Perris,CA,92571,9512598696,33.853821,-117.245437,patientsresource420@gmail.com
Royal Greens,hybrid,5067 West Washington Blvd.,Los Angeles,Mid Town,CA,90016,3232723444,34.041136,-118.35028,royalgreensla@gmail.com
NOHO CC ,hybrid,8085 Webb Ave,North Hollywood,North Hollywood,CA,91605,8189022155,34.21764,-118.38975,nohocompassionate@gmail.com
CCA California Caregivers Alliance,hybrid,2815 W Sunset Blvd #201,Los Angeles,Korea Town / Echo Park,CA,90026,2133530100,34.0822348,-118.272079,CCAsilverlake@yahoo.com
Joy of Life Wellness Center,hybrid,142 W Oasis Rd,Palm Springs,Palm Springs,CA,92262,7603181420,33.861575,-116.546414,joyoflifewellness@gmail.com
Remedy Inc.,hybrid,"68945 Vista Chino, Suite C",Cathedral City,Palm Springs,CA,92234,7608327083,33.844645,-116.459026,Remedyinc.meds@gmail.com
Highway 33,hybrid,21931 State Highway 33,Crows Landing,Patterson,CA,95313,2098377005,37.393989,-121.072775,byron@bynate.org
Sundial Collective,hybrid,827 Twin View Blvd,Redding,Redding,CA,96003,5302558875,40.619236,-122.371099,sundialcollective@gmail.com
HHC Plus,hybrid,1901 S. Alameda St. #112,Los Angeles,Downtown LA,CA,90058,2139731187,34.01973,-118.23974,hhcplusla@gmail.com
Blum - Santa Ana,recreational,2911 Tech Center Dr.,Santa Ana,Santa Ana,CA,92705,9492384203,33.705681,-117.855686,ca-info@letsblum.com
Super Clinik - East Santa Ana,hybrid,2525 S. Birch Street,Santa Ana,Santa Ana,CA,92707,7145572050,33.71305,-117.871016,SuperClinik@gmail.com
WeedWay Cannabis Dispensary,hybrid,7031 Foothill Blvd.,Tujunga,Sun Valley / Sunland / Tujunga,CA,91042,8182219801,34.24807,-118.28437,info@weedway.com
City of Dank,hybrid,68444 Perez Rd H,Cathedral City,Palm Springs,CA,92234,7606155225,33.785432,-116.467744,cityofdankcc@gmail.com
Green Dragon,recreational,7236 Varna Ave,North Hollywood,North Hollywood,CA,91605,8185053658,34.20222,-118.42461,GreenDragonCaregivers@gmail.com
Libra - Cathedral City,recreational,68945 Vista Chino Suite A,Cathedral City,Palm Springs,CA,92234,7608327614,33.844691,-116.459588,askme@hotn.club
LA Wonderland Marijuana Dispensary Recreational,recreational,150 Venice Blvd.,Los Angeles,Downtown LA,CA,90015,2137702004,34.03435,-118.26415,hotzonemed@gmail.com
West Clinik - Santa Ana,hybrid,2110 S. Yale Street Unit A,Santa Ana,Santa Ana,CA,92704,7144625221,33.718931,-117.916709,superclinikyale@gmail.com
The Growcery,recreational,5818 West Pico Blvd.,Midtown,Mid Town,CA,90019,3238523420,34.051079,-118.365329,thereliefcollective@gmail.com
Treetop - LA,hybrid,138 N San Fernando Rd,Los Angeles,East LA,CA,90031,3239404525,34.075423,-118.221583,TREETOP.LOSANGELES@GMAIL.COM
New Generation,hybrid,"3700 W. Segerstrom Ave., Suite A",Santa Ana,Santa Ana,CA,92704,6579008200,33.708196,-117.918616,newgen@newgen.club
Exclusive Caregivers of California,hybrid,6200 S Wilton Place,Los Angeles,Inglewood / Hawthorne / Crenshaw / Leimert Park,CA,90047,3239204008,33.983001,-118.314571,exclusiveking15@gmail.com
Platinum Club,hybrid,18441 Vanowen St,Reseda,Northridge / Chatsworth / Reseda,CA,91335,8185785945,34.194007,-118.535032,buyer@club78.shop
The Peoples Remedy Mchenry,hybrid,2308 Mchenry Ave,Modesto,Modesto,CA,95350,2096226101,37.675871,-120.993696,tpr.mchenry@gmail.com
Fountain of Wellbeing - FWB,hybrid,7231 Hinds Ave,North Hollywood,North Hollywood,CA,91605,8189827420,34.202133,-118.39138,fwbnhla@gmail.com
Urban Treez ,hybrid,11376 Ventura Blvd,Studio City,Sherman Oaks / Studio City,CA,91604,8446887339,34.13982,-118.37846,Contact@UrbanTreez.com
SFVPC,hybrid,12527 San Fernando Road,Sylmar,Sylmar / Pacoima / Panorama City,CA,91342,8182806868,34.297559,-118.457868,admin@sfvog.org
Urbn Leaf Southwest,hybrid,658 East San Ysidro Blvd,San Diego,Imperial Beach / Otay Mesa,CA,92173,6196636337,32.546403,-117.033342,support@southwestpatientgroup.com
TLC,recreational,3650 E. Olympic Blvd (4th Floor),Los Angeles,East LA,CA,90023,3232692455,34.01861,-118.1992,management@tlccollective.com
Divine Wellness Center,hybrid,7246 Eton Ave,Canoga Park,Woodland Hills / Tarzana / Canoga Park,CA,91303,8188884846,34.202437,-118.595155,divinewellnesscenter@gmail.com
LA Kush,hybrid,5470 Valley Blvd,Los Angeles,East LA,CA,90032,3233429110,34.073396,-118.163739,info@lakush.com
Patients and Caregivers,recreational,6141 Vineland Ave.,North Hollywood,North Hollywood,CA,91606,8185080434,34.1823539,-118.370629,patientsandcaregivers@yahoo.com
Kannabis Works,hybrid,2106 S Susan Street,Santa Ana,Santa Ana,CA,92704,9496623960,33.717998,-117.913497,Justin@KannabisWorks.com
MediThrive Cannabis Dispensary & Delivery,hybrid,1933 Mission St,San Francisco,San Francisco,CA,94103,4155626334,37.766174,-122.419503,info@medithrive.com
Bud and Bloom,hybrid,1327 E St Gertrude Place,Santa Ana,Santa Ana,CA,92705,7145762150,33.719851,-117.852724,BudAndBloomOC@gmail.com
ECO Cannabis,hybrid,2435 Telegraph Avenue,Oakland,Oakland,CA,94612,5103383001,37.81383,-122.26869,high@ecocannabis.net
SkyhighLA,recreational,1039 North Mission Rd.,Los Angeles,East LA,CA,90033,3235762153,34.05992,-118.21562,medicalcaregiverscoop@yahoo.com
MedMen - WeHo,hybrid,8208 Santa Monica Blvd,West Hollywood,West Hollywood,CA,90046,3238487981,34.09065,-118.36767,info.weho@medmen.com
The Cannabliss,hybrid,1619 N. Chester Ave.,Bakersfield,Bakersfield,CA,93308,6617487756,35.42098,-119.02155,TheCannabliss@ProtonMail.com
SOCC,hybrid,5740 Lankershim Blvd,Los Angeles,North Hollywood,CA,91601,8187838332,34.175075,-118.380492,shermanoakscollectivecare@gmail.com
Safe Accessible Solutions,hybrid,8125 36th Ave,Sacramento,Sacramento South,CA,95824,9163869840,38.52092,-121.40733,sascollective420@gmail.com
Unified Patient Alliance,hybrid,8416 Lankershim Bl. #107,Sun Valley,Sun Valley / Sunland / Tujunga,CA,91352,8185048255,34.223115,-118.387437,upacollective@yahoo.com
Kushism Van Nuys,hybrid,7555 Woodley Avenue,Van Nuys,Van Nuys,CA,91406,8189943446,34.208142,-118.483852,info@kushisminc.com
MedMen San Diego - Torrey Pines,hybrid,10715 Sorrento Valley Rd.,Sorrento Valley,La Jolla,CA,92121,8585291985,32.898849,-117.22042,info.sorrentovalley@medmen.com
Stone Age Farmacy LB ,hybrid,3428 Long Beach Blvd,Long Beach,North Long Beach / Signal Hill,CA,90807,5626764014,33.819191,-118.188958,longbeach@stoneagefarmacy.com
Sunset Herbal,recreational,11503 Burbank Blvd,North Hollywood,North Hollywood,CA,91601,8187622282,34.172486,-118.38277,sunsetherbalcorner@gmail.com
Ojai Greens,hybrid,410 Bryant Circle Unit B,Ojai,Ojai,CA,93023,8056464420,34.44406,-119.238,contact@ojaigreens.com
The Micro Buddery,hybrid,66321 Pierson Blvd,Desert Hot Springs,Palm Springs,CA,92240,7609042910,33.961199,-116.504554,contact@themicrobuddery.com
Stash Studio City,hybrid,12433 Ventura Blvd,Studio City,Sherman Oaks / Studio City,CA,91604,8188105353,34.14294,-118.40413,stashstudiocity@gmail.com
Rio Vista Farms,recreational,11 Richard Brann Drive,Rio Vista,Rio Vista,CA,94571,8334244283,38.170292,-121.686647,storefront@riovistafarms.com
Mother Nature Remedy Caregivers,hybrid,22817 Ventura Blvd,Woodland Hills,Woodland Hills / Tarzana / Canoga Park,CA,91364,8184362243,34.166003,-118.624021,mnrcoop1@gmail.com
LAVC,recreational,6132 Wilshire Blvd,Los Angeles,West Hollywood,CA,90048,3235001040,34.063139,-118.363085,lavcdispensary@gmail.com
Cannary West,hybrid,2435 Military Ave.,Los Angeles,West Los Angeles,CA,90064,4242932479,34.037252,-118.432571,info@cannarywest.com
Los Angeles Farmers,recreational,824 E 17th St,Los Angeles,Downtown LA,CA,90021,2139735209,34.02736,-118.25302,info@thelosangelesfarmers.com
West Cliff Wellness,recreational,1100B Fair Ave,Santa Cruz,Santa Cruz,CA,95060,8313450281,36.959542,-122.045655,info@westcliffwellness.com
High Tide,hybrid,11101 Main St.,Lamont,Bakersfield,CA,93241,6615637083,35.254345,-118.914056,HighTideLamont@ProtonMail.com
Dank Depot,recreational,68031 Ramon Rd Unit 103,Cathedral City,Palm Springs,CA,92234,7608328778,33.815501,-116.474942,dankdepotcc@gmail.com
Down Under Industries,hybrid,50 Ely Rd N,Petaluma,Santa Rosa,CA,94954,7076581707,38.282091,-122.665457,contact@downunderindusturies.com
MOTA (Medicine Of The Angels),hybrid,4001 West Sunset BLVD,Los Angeles,Hollywood,CA,90029,3235223024,34.09271,-118.28035,info@mota.la
MedMen - Abbot Kinney,hybrid,1310 Abbot Kinney Blvd.,Venice,Venice / Marina Del Rey,CA,90291,4243307232,33.99094,-118.46783,info.ak@medmen.com
Desert Organic Solutions,hybrid,19486 Newhall St #102,Palm Springs,Palm Springs,CA,92258,7602884000,33.9067099,-116.549333,INFO@DESERTORGANICSOLUTIONS.COM
Sespe Creek Collective,hybrid,408 Bryant Circle Unit C,Ojai,Ojai,CA,93023,8557229333,34.442724,-119.23795,info@sespe.org
SCF,recreational,22865 Lockness Ave.,Torrance,Torrance,CA,90501,3105618508,33.81734,-118.307436,scfsunrise420@gmail.com
Alternative Medical Center,hybrid,1220 Blumenfeld Drive,Sacramento,Sacramento,CA,95815,9165641100,38.6040266,-121.4386561,amc_916@yahoo.com
Redwood Herbal Alliance,hybrid,5270 Aero Drive,Santa Rosa,Santa Rosa,CA,95403,7075283632,38.5101421,-122.7648993,rhapickup@gmail.com
The Higher Conscious,hybrid,100 W Las Palmas Suite H,Patterson,Patterson,CA,95363,2098928420,37.472009,-121.127502,info@thehigherconscious.org
Creekside Wellness,hybrid,12603 Highway 9,Boulder Creek,Santa Cruz,CA,95006,8313383840,37.14052,-122.14396,eyeheartcannabis@gmail.com
Korea Town Collective - Melrose,hybrid,7382 Melrose Ave,Los Angeles,West Hollywood,CA,90046,3239519513,34.083421,-118.350991,info@ktownmelrose.com
THC Sacramento,hybrid,6666 Fruitridge Road #C,Sacramento,Sacramento South,CA,95820,9164764431,38.524763,-121.424727,sacramentothc@gmail.com
Green Solutions - Sacramento,hybrid,1404 28th Street,Sacramento,Sacramento,CA,95816,9167060489,38.569224,-121.471478,greensolutionsmidtown@gmail.com
Organic Solutions of the Desert,hybrid,4765 E. Ramon Rd,Palm Springs,Palm Springs,CA,92264,7608327813,33.8156407,-116.4947532,organicsolutionsofthedesert@aol.com
805 Beach Breaks,hybrid,1053 Highland way,Grover Beach,5 Cities,CA,93433,8056682228,35.109301,-120.618843,info@805beachbreaks.com
Cloud 9,hybrid,5711 Florin Perkins Road #A,Sacramento,Sacramento South,CA,95828,9163878605,38.523089,-121.389828,cloud9916@gmail.com
Humboldt Patient Resource Center HPRC,hybrid,980 6th Street,Arcata,Eureka,CA,95521,7078267988,40.867058,-124.0895114,info@HPRCArcata.com
Los Angeles Patients & Caregivers Group LAPCG,recreational,7213 Santa Monica Blvd.,West Hollywood,West Hollywood,CA,90046,3238826033,34.0908316,-118.3467033,weholapcg@gmail.com
Natural Aid Cannabis Dispensary- Sunland,hybrid,8124 foothill blvd,Sunland,Sun Valley / Sunland / Tujunga,CA,91042,8187992427,34.259498,-118.310162,naturalaidla@gmail.com
Abatin Wellness Center,recreational,2100 29th Street,Sacramento,Sacramento South,CA,95816,9168225699,38.561324,-121.474047,info@abatinsacramento.com
"Theraleaf Relief, Inc.",hybrid,1014 Timothy Drive,San Jose,San Jose,CA,95133,4088493706,37.3639,-121.88058,theraleafrelief408@gmail.com
Connected Cannabis Co - Belmont Shore,hybrid,5227 E 2nd St,Long Beach,South Long Beach / Belmont Shore,CA,90803,5622482474,33.760289,-118.134235,Belmont@connected-socal.com
From The Earth,hybrid,3023 S. Orange Ave,Santa Ana,Santa Ana,CA,92707,6574447336,33.706456,-117.864691,fromtheearthoc@gmail.com
Redwood Coast Dispensary,recreational,10090 Highway 9,Ben Lomond,Santa Cruz,CA,95005,8313368795,37.094155,-122.09591,redwoodcoastdispensary@gmail.com
Blum - San Leandro,hybrid,1915 Fairway Drive,San Leandro,Hayward / Castro Valley,CA,94577,5109062586,37.703314,-122.16867,CA-Info@letsblum.com
Euflora - Long Beach,recreational,1147 E South St,Long Beach,North Long Beach / Signal Hill,CA,90805,5626062700,33.860372,-118.178019,eufloralongbeach@gmail.com
Peoples OC,hybrid,2721 S. Grand Ave,Santa Ana,Santa Ana,CA,92705,7145823446,33.71054,-117.850524,marketing@pmcoc.com
House of Organics,hybrid,8848 Fruitridge Rd.,Sacramento,Sacramento South,CA,95826,9163813769,38.525225,-121.3735278,houseoforganics13@gmail.com
Lakeside Herbal Solutions,hybrid,4345 Mullen Ave,Clearlake,Clearlake,CA,95422,7079943721,38.952618,-122.642269,lhsmgmtllc@gmail.com
Green Door San Francisco,hybrid,843 Howard St.,San Francisco,San Francisco,CA,94103,4155419590,37.7823156,-122.4035096,contact@greendoorsf.com
Jet Room,hybrid,17499 Adelanto Road,Victorville,Victorville,CA,92301,8335387666,34.568061,-117.399839,jetroom1@yahoo.com
Kolas,hybrid,1115 Fee Dr.,Sacramento,Sacramento,CA,95815,9166466340,38.600691,-121.441259,shopkolas@gmail.com
Florin Wellness Center,hybrid,1421 47th Ave.,Sacramento,Sacramento South,CA,95822,9167060563,38.510871,-121.50363,contact@florinwellnesscenter.com
Sweet Flower - Studio City,hybrid,11705 Ventura Blvd.,Studio City,Sherman Oaks / Studio City,CA,91604,8187946420,34.141591,-118.388004,studiocity@sweetflower.com
MedMen - Beverly Hills,hybrid,110 S. Robertson Blvd,Los Angeles,West Hollywood,CA,90048,3103073478,34.0749,-118.3836,info.beverlyhills@medmen.com
La Florista Cannabis,hybrid,242 Main St,Weed,Mt Shasta,CA,96094,5304080420,41.424366,-122.384736,lafloristapatients@gmail.com
California Cannabis Crenshaw,hybrid,7415 Crenshaw,Los Angeles,Inglewood / Hawthorne / Crenshaw / Leimert Park,CA,90043,3233051466,33.972214,-118.331099,Accounting@californiacannabiswc.com
CC101,hybrid,6435 Florin Perkins Road,Sacramento,Sacramento South,CA,95828,9163876233,38.509529,-121.389877,collectivecc101@gmail.com
Valley Health Options,hybrid,1421 Auburn Blvd,Sacramento,Sacramento,CA,95815,9167790715,38.611829,-121.433944,vhoptions@yahoo.com
The Marijuana Factory,hybrid,9155 Deering ave,Chatsworth,Northridge / Chatsworth / Reseda,CA,91311,8186789891,34.237233,-118.596722,tmfmarijuana@gmail.com
The Vault Dispensary Lounge,hybrid,35871 Date Palm Dr,Cathedral City,Palm Springs,CA,92234,7608669660,33.781,-116.4641,sales@enjoythevault.com
Libra - Palm Desert,hybrid,78010 Country Club Drive Suite 100,Palm Desert,Palm Desert / Rancho Mirage,CA,92211,7603606420,33.758727,-116.303506,askme@librashop.com
LUX,hybrid,1859 Little Orchard St,San Jose,San Jose,CA,95125,4083859600,37.304571,-121.872377,info@luxmeds.com
MedMen - DTLA,hybrid,735 S Broadway,Los Angeles,Downtown LA,CA,90014,2139082244,34.04448,-118.2543,info.dtla@medmen.com
Field Of Dreams,hybrid,1787 Westwood,Los Angeles,West Los Angeles,CA,90024,4242312022,34.050322,-118.437724,support.ww@fieldofdreams.me
Dutchman's Flat,recreational,2544 3rd Street,San Francisco,San Francisco,CA,94107,4158726867,37.757325,-122.388433,info@dutchmansflat.com
Phytologie Wellness,hybrid,8440 Enterprise Way,Oakland,Oakland,CA,94621,5104549779,37.7438727,-122.1939996,info@phytologieoakland.com
Santa Cruz Mountain Herbs,hybrid,22990 Highway 17,Los Gatos,Santa Cruz,CA,95033,4083531717,37.133318,-121.98097,santacruzmountainherb@gmail.com
MedMen - LAX Airport,hybrid,8740 S. Sepulveda Blvd,Los Angeles,LAX / Playa Del Rey / El Segundo,CA,90045,4242908030,33.95762,-118.39595,info.lax@medmen.com
CAC Venice,hybrid,122 Lincoln Blvd Suite 204,Los Angeles,Venice / Marina Del Rey,CA,90291,4247448507,34.002255,-118.469196,info@cacvenice.com
"Greenhouse Herbal Center, LLC",hybrid,5224 Hollywood Blvd.,Hollywood,Hollywood,CA,90027,3237410213,34.101611,-118.304133,greenwood5224@gmail.com
Gen!us,hybrid,7569 Melrose Ave,Los Angeles,West Hollywood,CA,90046,3239774200,34.083809,-118.355022,retail@geniusfund.com
Herbarium LA,hybrid,979 N La Brea Ave,Hollywood,Hollywood,CA,90038,3234472037,34.08833,-118.34414,delivery@herbarium.la
We Are Hemp,recreational,913 East Lewelling Blvd,Hayward,Hayward / Castro Valley,CA,94541,5102762628,37.6876998,-122.1067758,wearehemp@gmail.com
PURE 710SF,recreational,"49 Kearny Street, 3rd Floor",San Francisco,San Francisco,CA,94108,4156545275,37.788586,-122.403835,pure710sf@gmail.com
California Cannabis Soto,hybrid,1601 S Soto St.,Los Angeles,East LA,CA,90023,3236857151,34.020821,-118.22059,accounting@californiacannabiswc.com
House of Lucidity,recreational,36399 Cathedral Canyon Drive,Cathedral City,Palm Springs,CA,92234,7608336222,33.783936,-116.467193,info@houseoflucidity.com
Oak Creek Dispensary,recreational,"Oak Creek Dispensary, 139 N Hwy 395",Independence,Mammoth Lakes / Inyo County,CA,93526,7607600330,36.8362782,-118.22954,NICOLE@OAKCREEKDISPENSARY.COM
Sonoma Patient Group,hybrid,2425 Cleveland Ave #175,"Santa Rosa, CA",Santa Rosa,CA,95403,7075262800,38.4619157,-122.7286824,info@sonomapatientgroup.com
The Heart of Humboldt,hybrid,601 I Street,Arcata,Eureka,CA,95521,7078229330,40.86727,-124.08859,theheartofhumboldt@gmail.com
Cookies - LA,recreational,5815 Maywood Ave,Maywood,South Gate / Huntington Park / Downey,CA,90270,3105939908,33.989661,-118.203736,cookieslosangeles@gmail.com
Have a Heart - Coalinga,hybrid,286 N. 5th St.,Coalinga,Visalia,CA,93210,5599340310,36.140457,-120.36084,coalinga@haveaheartcc.com
Shangri La Care Centers Inc.,hybrid,"408 Bryant Circle, Suite G",Ojai,Ojai,CA,93023,8056406464,34.443074,-119.237926,accounting@slcc.info
Long Lodge Tribal Enterprises,recreational,2000 Harbor Blvd Suite #A106,Costa Mesa,Costa Mesa,CA,92626,7146002894,33.64728,-117.91892,longlodgetribal@gmail.com
MedMen - Central,hybrid,1075 N 10th St.,San Jose,San Jose,CA,95112,4082988837,37.361425,-121.89721,info.sanjose@medmen.com
Apothek,recreational,61 Main St,Isleton,Rio Vista,CA,95641,9166234133,38.163076,-121.604207,info@apothek.co
New Amsterdam Naturals,hybrid,9021 Exposition Blvd,Los Angeles,Culver City,CA,90034,3102026622,34.02869,-118.392693,nncc9021@gmail.com
All About Wellness,hybrid,1900 19th Street,Sacramento,Sacramento,CA,95811,9164544327,38.566975,-121.485819,express@sactown420.com
Coachella Smoke Co. Lounge,hybrid,85995 Grapefruit Blvd,Coachella,Palm Desert / Rancho Mirage,CA,92236,7602961096,33.679459,-116.173879,cscoachella@yahoo.com
One Log Tree House,recreational,705 N Highway 101,Garberville,Eureka,CA,95542,7072472717,40.01021,-123.78793,nocona@oneloghouse.com
Daddy's Dispensary,hybrid,7040 Hayvenhurst Ave,Van Nuys,Van Nuys,CA,91406,8185823749,34.198594,-118.491917,daddyslosangeles@gmail.com
Sweet Flower Arts District ,hybrid,614 Mateo Street,Los Angeles,Downtown LA,CA,90021,2135370637,34.037382,-118.232484,artsdistrict@sweetflower.com
Sticky Grove,recreational,1070 US HWY 101 N,Crescent City,Crescent City,CA,95531,7074606383,41.77495,-124.20175,medicalgenetics@rocketmail.com
Dosist - WeHo,recreational,8018 West 3rd St,Los Angeles,West Hollywood,CA,90048,3237448081,33.99059,-118.46514,W3rdstreet@dosist.com
Dosist - Venice,recreational,1423 Abbot Kinney Blvd.,Venice,Venice / Marina Del Rey,CA,90291,3103001488,33.99059,-118.46514,abbotkinney@dosist.com
Brown Dog Health and Wellness,hybrid,66595 Pierson Blvd,Desert Hot Springs,Palm Springs,CA,92240,9999999999,33.96135,-116.499581,browndogcoop@gmail.com
The Leonard Moore Co-Op,hybrid,44970 Ukiah Street,Mendocino,Mendocino,CA,95460,7079374562,39.306779,-123.798156,thelmc@thelmc.org
530 Cannabis,recreational,1550 Locust Ave,Shasta Lake City,Redding,CA,96019,5302750420,40.6812951,-122.3691639,management@530cannabis.org
OPG - Ontana Planet Green,hybrid,300 J Street,Needles,Needles / Blythe,CA,92363,7609033320,34.840307,-114.611007,opg420@icloud.com
MedMen - Santa Ana,hybrid,2141 S Wright St,Santa Ana,Santa Ana,CA,92705,7145158506,33.717441,-117.84664,info.oc@medmen.com
MedMen - Kearny Mesa,hybrid,5125 Convoy Street Unit #211,San Diego,Clairemont Kearny,CA,92111,6194508909,32.835049,-117.152039,info.sandiego@medmen.com
MedMen - Long Beach,hybrid,2767 E Broadway,Long Beach,South Long Beach / Belmont Shore,CA,90803,5624859303,33.765732,-118.159128,info.LBBroadway@medmen.com
MedMen - Lincoln Blvd,hybrid,410 Lincoln Blvd,Venice,Venice / Marina Del Rey,CA,90291,3103994307,34.000718,-118.466163,info.venice@medmen.com
Therapeutic Healthcare Collective,hybrid,5011 Soquel Drive,Santa Cruz,Santa Cruz,CA,95073,8317135641,36.988348,-121.952912,thcprop215@gmail.com
MedMen - Seaside,hybrid,"840 Broadway Ave, Suite B-4",Seaside,Monterey,CA,93955,8318845144,36.60905,-121.84685,info.seaside@medmen.com
SPARC - Mission St.,recreational,1256 Mission Street,San Francisco,San Francisco,CA,94103,4152527727,37.776961,-122.414225,info@sparcsf.org
CBCB,hybrid,3033 Shattuck Ave,Berkeley,Berkeley,CA,94705,5108494201,37.8540099,-122.2661415,info@cbcbberkeley.com
Berkeley Patients Group,recreational,2366 San Pablo Ave,Berkeley,Berkeley,CA,94702,5105406013,37.8632599,-122.290657,express@mybpg.com
Harborside San Jose,hybrid,1365 North 10th St.,San Jose,San Jose,CA,95112,8889942726,37.365092,-121.89978,sjcallcenter@shopharborside.com
SPARC - Haight St.,recreational,473 Haight St.,San Francisco,San Francisco,CA,94117,4158051085,37.771978,-122.42987,info@sparcsf.org
